COMMENT,ORIGINATOR,NORAD_CAT_ID,OBJECT_NAME,OBJECT_TYPE,CLASSIFICATION_TYPE,INTLDES,EPOCH,EPOCH_MICROSECONDS,MEAN_MOTION,ECCENTRICITY,INCLINATION,RA_OF_ASC_NODE,ARG_OF_PERICENTER,MEAN_ANOMALY,EPHEMERIS_TYPE,ELEMENT_SET_NO,REV_AT_EPOCH,BSTAR,MEAN_MOTION_DOT,MEAN_MOTION_DDOT,FILE,TLE_LINE0,TLE_LINE1,TLE_LINE2,OBJECT_ID,OBJECT_NUMBER,SEMIMAJOR_AXIS,PERIOD,APOGEE,PERIGEE,DECAYED
GENERATED VIA SPACETRACK.ORG API,18 SPCS,44336,ARIANE 5 DEB (SYLDA),DEBRIS,U,19034D,2023-10-06 10:55:33,606048,3.24658489,0.6544415,6.0869,356.0237,295.7519,12.2124,0,999,4182,0.0087117,0.0003157,0,4026185,0 ARIANE 5 DEB (SYLDA),1 44336U 19034D   23279.45525007  .00031570  00000-0  87117-2 0  9990,2 44336   6.0869 356.0237 6544415 295.7519  12.2124  3.24658489 41820,2019-034D,44336,19265.665,443.543,25495.78,279.279,0
GENERATED VIA SPACETRACK.ORG API,18 SPCS,44336,ARIANE 5 DEB (SYLDA),DEBRIS,U,19034D,2023-10-06 10:55:33,607776,3.24657001,0.6544444,6.087,356.0208,295.7565,12.2113,0,999,4184,0.0086992,0.00031544,0,4026447,0 ARIANE 5 DEB (SYLDA),1 44336U 19034D   23279.45525009  .00031544  00000-0  86992-2 0  9993,2 44336   6.0870 356.0208 6544444 295.7565  12.2113  3.24657001 41842,2019-034D,44336,19265.724,443.545,25495.934,279.244,0
GENERATED VIA SPACETRACK.ORG API,18 SPCS,44336,ARIANE 5 DEB (SYLDA),DEBRIS,U,19034D,2023-10-06 18:18:58,370976,3.24677458,0.6544375,6.0867,355.8328,296.1357,12.1146,0,999,4185,0.0095766,0.00034837,0,4026736,0 ARIANE 5 DEB (SYLDA),1 44336U 19034D   23279.76317559  .00034837  00000-0  95766-2 0  9993,2 44336   6.0867 355.8328 6544375 296.1357  12.1146  3.24677458 41859,2019-034D,44336,19264.914,443.517,25494.462,279.097,0
GENERATED VIA SPACETRACK.ORG API,18 SPCS,44336,ARIANE 5 DEB (SYLDA),DEBRIS,U,19034D,2023-10-07 09:05:42,827424,3.24719421,0.6544005,6.0858,355.4575,296.8927,11.9248,0,999,4187,0.0087976,0.00031944,0,4027321,0 ARIANE 5 DEB (SYLDA),1 44336U 19034D   23280.37896791  .00031944  00000-0  87976-2 0  9992,2 44336   6.0858 355.4575 6544005 296.8927  11.9248  3.24719421 41878,2019-034D,44336,19263.255,443.46,25491.003,279.236,0
GENERATED VIA SPACETRACK.ORG API,18 SPCS,44336,ARIANE 5 DEB (SYLDA),DEBRIS,U,19034D,2023-10-07 09:05:42,827424,3.24719421,0.6544005,6.0858,355.4575,296.8927,11.9248,0,999,4185,0.0087976,0.00031944,0,4027747,0 ARIANE 5 DEB (SYLDA),1 44336U 19034D   23280.37896791  .00031944  00000-0  87976-2 0  9992,2 44336   6.0858 355.4575 6544005 296.8927  11.9248  3.24719421 41856,2019-034D,44336,19263.255,443.46,25491.003,279.236,0
GENERATED VIA SPACETRACK.ORG API,18 SPCS,44336,ARIANE 5 DEB (SYLDA),DEBRIS,U,19034D,2023-10-08 07:15:37,768608,3.24779385,0.6543466,6.0846,354.896,298.0265,11.6448,0,999,4190,0.0091337,0.00033085,0,4028261,0 ARIANE 5 DEB (SYLDA),1 44336U 19034D   23281.30252047  .00033085  00000-0  91337-2 0  9990,2 44336   6.0846 354.8960 6543466 298.0265  11.6448  3.24779385 41903,2019-034D,44336,19260.884,443.378,25486.042,279.455,0
GENERATED VIA SPACETRACK.ORG API,18 SPCS,44336,ARIANE 5 DEB (SYLDA),DEBRIS,U,19034D,2023-10-08 14:38:52,809216,3.24799934,0.6543347,6.0841,354.7099,298.404,11.5524,0,999,4191,0.0096235,0.00034908,0,4028564,0 ARIANE 5 DEB (SYLDA),1 44336U 19034D   23281.61033344  .00034908  00000-0  96235-2 0  9998,2 44336   6.0841 354.7099 6543347 298.4040  11.5524  3.24799934 41910,2019-034D,44336,19260.071,443.35,25484.469,279.403,0
GENERATED VIA SPACETRACK.ORG API,18 SPCS,44336,ARIANE 5 DEB (SYLDA),DEBRIS,U,19034D,2023-10-09 12:48:27,729792,3.24861029,0.6542837,6.0831,354.1441,299.543,11.2765,0,999,4194,0.0087291,0.00031626,0,4029150,0 ARIANE 5 DEB (SYLDA),1 44336U 19034D   23282.53365428  .00031626  00000-0  87291-2 0  9997,2 44336   6.0831 354.1441 6542837 299.5430  11.2765  3.24861029 41944,2019-034D,44336,19257.656,443.266,25479.492,279.551,0
GENERATED VIA SPACETRACK.ORG API,18 SPCS,44336,ARIANE 5 DEB (SYLDA),DEBRIS,U,19034D,2023-10-09 12:48:27,758304,3.24860508,0.6542845,6.0831,354.1449,299.5431,11.2765,0,999,4192,0.0087535,0.00031719,0,4029312,0 ARIANE 5 DEB (SYLDA),1 44336U 19034D   23282.53365461  .00031719  00000-0  87535-2 0  9998,2 44336   6.0831 354.1449 6542845 299.5431  11.2765  3.24860508 41921,2019-034D,44336,19257.677,443.267,25479.541,279.542,0
GENERATED VIA SPACETRACK.ORG API,18 SPCS,44336,ARIANE 5 DEB (SYLDA),DEBRIS,U,19034D,2023-10-09 12:48:27,758304,3.24860508,0.6542845,6.0831,354.1449,299.5431,11.2765,0,999,4194,0.0087535,0.00031719,0,4029504,0 ARIANE 5 DEB (SYLDA),1 44336U 19034D   23282.53365461  .00031719  00000-0  87535-2 0  9998,2 44336   6.0831 354.1449 6542845 299.5431  11.2765  3.24860508 41943,2019-034D,44336,19257.677,443.267,25479.541,279.542,0
GENERATED VIA SPACETRACK.ORG API,18 SPCS,44336,ARIANE 5 DEB (SYLDA),DEBRIS,U,19034D,2023-10-11 09:06:52,852896,3.24983603,0.6541755,6.0812,353.0124,301.8219,10.7324,0,999,4198,0.0083882,0.00030253,0,4030828,0 ARIANE 5 DEB (SYLDA),1 44336U 19034D   23284.37977839  .00030253  00000-0  83882-2 0  9993,2 44336   6.0812 353.0124 6541755 301.8219  10.7324  3.24983603 41981,2019-034D,44336,19252.814,443.099,25469.398,279.96,0
GENERATED VIA SPACETRACK.ORG API,18 SPCS,44336,ARIANE 5 DEB (SYLDA),DEBRIS,U,19034D,2023-10-11 09:06:52,852896,3.24983603,0.6541755,6.0812,353.0124,301.8219,10.7324,0,999,4200,0.0083882,0.00030253,0,4031093,0 ARIANE 5 DEB (SYLDA),1 44336U 19034D   23284.37977839  .00030253  00000-0  83882-2 0  9993,2 44336   6.0812 353.0124 6541755 301.8219  10.7324  3.24983603 42005,2019-034D,44336,19252.814,443.099,25469.398,279.96,0
GENERATED VIA SPACETRACK.ORG API,18 SPCS,44336,ARIANE 5 DEB (SYLDA),DEBRIS,U,19034D,2023-10-12 07:15:44,329824,3.25038415,0.6541332,6.0797,352.4538,302.953,10.4646,0,999,4203,0.0085311,0.00030755,0,4031907,0 ARIANE 5 DEB (SYLDA),1 44336U 19034D   23285.30259641  .00030755  00000-0  85311-2 0  9997,2 44336   6.0797 352.4538 6541332 302.9530  10.4646  3.25038415 42038,2019-034D,44336,19250.649,443.025,25465.003,280.025,0
GENERATED VIA SPACETRACK.ORG API,18 SPCS,44336,ARIANE 5 DEB (SYLDA),DEBRIS,U,19034D,2023-10-12 14:38:38,80608,3.25061344,0.6541145,6.0795,352.2623,303.3336,10.3744,0,999,4204,0.0085615,0.00030846,0,4032297,0 ARIANE 5 DEB (SYLDA),1 44336U 19034D   23285.61016297  .00030846  00000-0  85615-2 0  9997,2 44336   6.0795 352.2623 6541145 303.3336  10.3744  3.25061344 42046,2019-034D,44336,19249.744,442.993,25463.146,280.072,0
GENERATED VIA SPACETRACK.ORG API,18 SPCS,44336,ARIANE 5 DEB (SYLDA),DEBRIS,U,19034D,2023-10-13 12:47:11,216544,3.25114533,0.6540786,6.0784,351.6965,304.4743,10.1058,0,999,4207,0.009132,0.00032922,0,4032919,0 ARIANE 5 DEB (SYLDA),1 44336U 19034D   23286.53276871  .00032922  00000-0  91320-2 0  9992,2 44336   6.0784 351.6965 6540786 304.4743  10.1058  3.25114533 42078,2019-034D,44336,19247.644,442.921,25458.982,280.037,0
GENERATED VIA SPACETRACK.ORG API,18 SPCS,44336,ARIANE 5 DEB (SYLDA),DEBRIS,U,19034D,2023-10-13 12:47:11,216544,3.25114533,0.6540786,6.0784,351.6965,304.4743,10.1058,0,999,4205,0.009132,0.00032922,0,4032967,0 ARIANE 5 DEB (SYLDA),1 44336U 19034D   23286.53276871  .00032922  00000-0  91320-2 0  9992,2 44336   6.0784 351.6965 6540786 304.4743  10.1058  3.25114533 42056,2019-034D,44336,19247.644,442.921,25458.982,280.037,0
GENERATED VIA SPACETRACK.ORG API,18 SPCS,44336,ARIANE 5 DEB (SYLDA),DEBRIS,U,19034D,2023-10-14 10:55:30,40320,3.25172524,0.6540332,6.0774,351.1277,305.618,9.8386,0,999,4210,0.0077859,0.00028036,0,4033811,0 ARIANE 5 DEB (SYLDA),1 44336U 19034D   23287.45520880  .00028036  00000-0  77859-2 0  9998,2 44336   6.0774 351.1277 6540332 305.6180   9.8386  3.25172524 42100,2019-034D,44336,19245.356,442.842,25454.323,280.119,0
GENERATED VIA SPACETRACK.ORG API,18 SPCS,44336,ARIANE 5 DEB (SYLDA),DEBRIS,U,19034D,2023-10-14 18:18:13,349664,3.25190548,0.6540217,6.0771,350.9388,305.9968,9.75,0,999,4211,0.008491,0.00030577,0,4034164,0 ARIANE 5 DEB (SYLDA),1 44336U 19034D   23287.76265451  .00030577  00000-0  84910-2 0  9991,2 44336   6.0771 350.9388 6540217 305.9968   9.7500  3.25190548 42110,2019-034D,44336,19244.645,442.817,25452.925,280.094,0
GENERATED VIA SPACETRACK.ORG API,18 SPCS,44336,ARIANE 5 DEB (SYLDA),DEBRIS,U,19034D,2023-10-14 18:18:13,364352,3.25187703,0.6540262,6.0769,350.941,305.9951,9.7508,0,999,4209,0.0082157,0.00029612,0,4034283,0 ARIANE 5 DEB (SYLDA),1 44336U 19034D   23287.76265468  .00029612  00000-0  82157-2 0  9998,2 44336   6.0769 350.9410 6540262 305.9951   9.7508  3.25187703 42099,2019-034D,44336,19244.757,442.821,25453.197,280.047,0
GENERATED VIA SPACETRACK.ORG API,18 SPCS,44336,ARIANE 5 DEB (SYLDA),DEBRIS,U,19034D,2023-10-15 09:03:35,607744,3.25224172,0.654006,6.0762,350.5584,306.7605,9.573,0,999,4213,0.0075535,0.00027269,0,4034787,0 ARIANE 5 DEB (SYLDA),1 44336U 19034D   23288.37749546  .00027269  00000-0  75535-2 0  9998,2 44336   6.0762 350.5584 6540060 306.7605   9.5730  3.25224172 42133,2019-034D,44336,19243.318,442.772,25450.429,279.938,0
GENERATED VIA SPACETRACK.ORG API,18 SPCS,44336,ARIANE 5 DEB (SYLDA),DEBRIS,U,19034D,2023-10-15 09:03:35,637120,3.25223601,0.6540068,6.0761,350.5612,306.7558,9.5744,0,999,4213,0.0078902,0.00028486,0,4035078,0 ARIANE 5 DEB (SYLDA),1 44336U 19034D   23288.37749580  .00028486  00000-0  78902-2 0  9999,2 44336   6.0761 350.5612 6540068 306.7558   9.5744  3.25223601 42130,2019-034D,44336,19243.341,442.772,25450.482,279.93,0
GENERATED VIA SPACETRACK.ORG API,18 SPCS,44336,ARIANE 5 DEB (SYLDA),DEBRIS,U,19034D,2023-10-16 07:11:28,957344,3.25276693,0.6539708,6.0746,349.9943,307.8975,9.3122,0,999,4216,0.0081095,0.0002927,0,4036830,0 ARIANE 5 DEB (SYLDA),1 44336U 19034D   23289.29964071  .00029270  00000-0  81095-2 0  9994,2 44336   6.0746 349.9943 6539708 307.8975   9.3122  3.25276693 42166,2019-034D,44336,19241.247,442.7,25446.325,279.898,0
